NORAD_CAT_ID,OBJECT_NAME,OBJECT_TYPE,EPOCH,MEAN_MOTION,ECCENTRICITY,INCLINATION,RA_OF_ASC_NODE,ARG_OF_PERICENTER,MEAN_ANOMALY,BSTAR,MEAN_MOTION_DOT,MEAN_MOTION_DDOT,TLE_LINE0,TLE_LINE1,TLE_LINE2,SEMIMAJOR_AXIS,PERIOD,APOGEE,PERIGEE,DECAYED
54084.0,STARLINK-5183,PAYLOAD,2023-01-01 02:59:25,15.08847604,0.0001230999999999,53.2167,157.67600000000004,75.7619,284.351,2.6516e-05,1.34e-06,0.0,0 STARLINK-5183,1 54084U 22136AK  23001.12460242  .00000134  00000-0  26516-4 0  9994,2 54084  53.2167 157.6760 0001231  75.7619 284.3510 15.08847604 11807,6917.857,95.437,540.5740000000002,538.871,0.0
54084.0,STARLINK-5183,PAYLOAD,2023-01-01 09:20:58,15.08841307,0.0001571999999999,53.2161,156.4871,85.4452,274.672,-1.5628e-05,-5.37e-06,0.0,0 STARLINK-5183,1 54084U 22136AK  23001.38956771 -.00000537  00000-0 -15628-4 0  9990,2 54084  53.2161 156.4871 0001572  85.4452 274.6720 15.08841307 11845,6917.876,95.437,540.8290000000002,538.654,0.0
54084.0,STARLINK-5183,PAYLOAD,2023-01-01 17:17:54,15.08834112,0.0001301,53.2153,154.9999,78.8474,281.2664,-0.00012287,-2.243e-05,0.0,0 STARLINK-5183,1 54084U 22136AK  23001.72077507 -.00002243  00000-0 -12287-3 0  9992,2 54084  53.2153 154.9999 0001301  78.8474 281.2664 15.08834112 11410,6917.898,95.438,540.663,538.863,0.0
54084.0,STARLINK-5183,PAYLOAD,2023-01-02 12:22:31,15.08844304,0.0001284,53.2158,151.4316,81.569,278.5448,-8.6762e-07,-3.02e-06,0.0,0 STARLINK-5183,1 54084U 22136AK  23002.51564400 -.00000302  00000-0 -86762-6 0  9999,2 54084  53.2158 151.4316 0001284  81.5690 278.5448 15.08844304 12011,6917.8669999999975,95.437,540.62,538.844,0.0
54084.0,STARLINK-5183,PAYLOAD,2023-01-02 18:44:03,15.08852485,0.0001154,53.216,150.2423,86.40700000000002,273.7054,-1.7992e-05,-5.74e-06,0.0,0 STARLINK-5183,1 54084U 22136AK  23002.78059816 -.00000574  00000-0 -17992-4 0  9996,2 54084  53.2160 150.2423 0001154  86.4070 273.7054 15.08852485 11571,6917.842,95.437,540.506,538.909,0.0
54084.0,STARLINK-5183,PAYLOAD,2023-01-03 02:41:00,15.08832967,0.0001595,53.2171,148.7557,80.1261,279.9912,5.143e-06,-2.06e-06,0.0,0 STARLINK-5183,1 54084U 22136AK  23003.11181153 -.00000206  00000-0  51430-5 0  9991,2 54084  53.2171 148.7557 0001595  80.1261 279.9912 15.08832967 12109,6917.901999999999,95.438,540.87,538.663,0.0
54084.0,STARLINK-5183,PAYLOAD,2023-01-03 12:13:18,15.0883506,0.0001222,53.2165,146.9708,78.8315,281.2815,0.00013641,1.883e-05,0.0,0 STARLINK-5183,1 54084U 22136AK  23003.50924655  .00001883  00000-0  13641-3 0  9997,2 54084  53.2165 146.9708 0001222  78.8315 281.2815 15.08835060 11688,6917.895,95.438,540.606,538.915,0.0
54084.0,STARLINK-5183,PAYLOAD,2023-01-03 18:34:51,15.08834312,0.0001371,53.2165,145.7799,87.3441,272.7708,0.00015938,2.249e-05,0.0,0 STARLINK-5183,1 54084U 22136AK  23003.77420759  .00002249  00000-0  15938-3 0  9990,2 54084  53.2165 145.7799 0001371  87.3441 272.7708 15.08834312 12209,6917.898,95.438,540.711,538.814,0.0
54084.0,STARLINK-5183,PAYLOAD,2023-01-04 15:14:51,15.08847502,0.000149,53.2167,141.914,80.7737,279.3423,3.9785e-05,3.45e-06,0.0,0 STARLINK-5183,1 54084U 22136AK  23004.63532352  .00000345  00000-0  39785-4 0  9991,2 54084  53.2167 141.9140 0001490  80.7737 279.3423 15.08847502 12332,6917.857,95.437,540.753,538.692,0.0
54084.0,STARLINK-5183,PAYLOAD,2023-01-05 11:54:51,15.08858207,0.0001605,53.2159,138.0497,76.5194,283.5977,0.00016755,2.381e-05,0.0,0 STARLINK-5183,1 54084U 22136AK  23005.49642894  .00002381  00000-0  16755-3 0  9992,2 54084  53.2159 138.0497 0001605  76.5194 283.5977 15.08858207 12462,6917.825,95.436,540.8,538.5790000000002,0.0
54084.0,STARLINK-5183,PAYLOAD,2023-01-06 11:45:40,15.08837077,0.0001571,53.2167,133.5824,119.7673,240.3475,-0.00016492,-2.912e-05,0.0,0 STARLINK-5183,1 54084U 22136AK  23006.49004799 -.00002912  00000-0 -16492-3 0  9999,2 54084  53.2167 133.5824 0001571 119.7673 240.3475 15.08837077 12612,6917.889,95.438,540.841,538.668,0.0
54084.0,STARLINK-5183,PAYLOAD,2023-01-06 18:07:13,15.08828352,0.0001341,53.2168,132.3965,114.781,245.3322,-0.00022092,-3.801e-05,0.0,0 STARLINK-5183,1 54084U 22136AK  23006.75501609 -.00003801  00000-0 -22092-3 0  9991,2 54084  53.2168 132.3965 0001341 114.7810 245.3322 15.08828352 12655,6917.916,95.438,540.7090000000002,538.8530000000002,0.0
54084.0,STARLINK-5183,PAYLOAD,2023-01-07 14:47:13,15.088390300000002,0.0001391,53.2156,128.5352,73.6233,286.4912,-8.8845e-05,-1.702e-05,0.0,0 STARLINK-5183,1 54084U 22136AK  23007.61613022 -.00001702  00000-0 -88845-4 0  9997,2 54084  53.2156 128.5352 0001391  73.6233 286.4912 15.08839030 12786,6917.883000000002,95.438,540.711,538.786,0.0
54084.0,STARLINK-5183,PAYLOAD,2023-01-08 14:38:00,15.08833298,0.0001419,53.2159,124.0742,74.8565,285.2584,0.00023673,3.481e-05,0.0,0 STARLINK-5183,1 54084U 22136AK  23008.60973023  .00003481  00000-0  23673-3 0  9998,2 54084  53.2159 124.0742 0001419  74.8565 285.2584 15.08833298 12451,6917.901,95.438,540.748,538.784,0.0
54084.0,STARLINK-5183,PAYLOAD,2023-01-09 00:10:20,15.08828251,0.000119,53.2156,122.2931,76.117,283.9954,0.00019229,2.773e-05,0.0,0 STARLINK-5183,1 54084U 22136AK  23009.00717630  .00002773  00000-0  19229-3 0  9998,2 54084  53.2156 122.2931 0001190  76.1170 283.9954 15.08828251 12999,6917.916,95.438,540.605,538.9580000000002,0.0
54084.0,STARLINK-5183,PAYLOAD,2023-01-09 14:28:48,15.08837925,0.0001202,53.2165,119.6138,55.0766,305.0339,0.00012233,1.659e-05,0.0,0 STARLINK-5183,1 54084U 22136AK  23009.60333406  .00001659  00000-0  12233-3 0  9999,2 54084  53.2165 119.6138 0001202  55.0766 305.0339 15.08837925 12608,6917.887,95.438,540.5830000000002,538.92,0.0
54084.0,STARLINK-5183,PAYLOAD,2023-01-09 17:39:34,15.08840206,0.0001286,53.2165,119.0192,56.924,303.1875,0.00012119,1.641e-05,0.0,0 STARLINK-5183,1 54084U 22136AK  23009.73581270  .00001641  00000-0  12119-3 0  9991,2 54084  53.2165 119.0192 0001286  56.9240 303.1875 15.08840206 13107,6917.88,95.438,540.634,538.855,0.0
54084.0,STARLINK-5183,PAYLOAD,2023-01-10 12:44:12,15.08840848,0.00014,53.2163,115.4521,63.1501,296.9634,1.9423e-05,2.1e-07,0.0,0 STARLINK-5183,1 54084U 22136AK  23010.53069548  .00000021  00000-0  19423-4 0  9997,2 54084  53.2163 115.4521 0001400  63.1501 296.9634 15.08840848 12742,6917.8780000000015,95.438,540.711,538.774,0.0
54084.0,STARLINK-5183,PAYLOAD,2023-01-11 12:34:58,15.08855358,0.0001444,53.2162,110.9913,62.1604,297.9534,5.9729e-05,6.63e-06,0.0,0 STARLINK-5183,1 54084U 22136AK  23011.52428433  .00000663  00000-0  59729-4 0  9994,2 54084  53.2162 110.9913 0001444  62.1604 297.9534 15.08855358 13379,6917.833000000001,95.437,540.697,538.7,0.0
54084.0,STARLINK-5183,PAYLOAD,2023-01-11 23:42:40,15.0884607,0.0001639,53.2163,108.9101,58.8069,301.3084,8.923700000000001e-05,1.133e-05,0.0,0 STARLINK-5183,1 54084U 22136AK  23011.98796779  .00001133  00000-0  89237-4 0  9995,2 54084  53.2163 108.9101 0001639  58.8069 301.3084 15.08846070 13448,6917.861999999999,95.437,540.861,538.5930000000002,0.0
54084.0,STARLINK-5183,PAYLOAD,2023-01-12 15:36:31,15.08844519,0.0001835,53.2157,105.9372,59.5192,300.5981,0.00017023,2.422e-05,0.0,0 STARLINK-5183,1 54084U 22136AK  23012.65036247  .00002422  00000-0  17023-3 0  9992,2 54084  53.2157 105.9372 0001835  59.5192 300.5981 15.08844519 13062,6917.866999999998,95.437,541.001,538.462,0.0
54084.0,STARLINK-5183,PAYLOAD,2023-01-12 23:33:28,15.08824407,0.0001436,53.2161,104.4496,67.7229,292.3915,-8.8964e-05,-1.703e-05,0.0,0 STARLINK-5183,1 54084U 22136AK  23012.98158410 -.00001703  00000-0 -88964-4 0  9991,2 54084  53.2161 104.4496 0001436  67.7229 292.3915 15.08824407 13594,6917.928000000001,95.439,540.786,538.8,0.0
54084.0,STARLINK-5183,PAYLOAD,2023-01-13 12:16:35,15.08814225,0.0001458,53.217,102.068,79.7864,280.3293,-0.00010485,-1.955e-05,0.0,0 STARLINK-5183,1 54084U 22136AK  23013.51151657 -.00001955  00000-0 -10485-3 0  9998,2 54084  53.2170 102.0680 0001458  79.7864 280.3293 15.08814225 13677,6917.959,95.439,540.8330000000001,538.816,0.0
54084.0,STARLINK-5183,PAYLOAD,2023-01-14 13:42:43,15.08856004,0.0001234,53.217,97.3102,74.346,285.7669,0.00043384,6.626e-05,0.0,0 STARLINK-5183,1 54084U 22136AK  23014.57133811  .00006626  00000-0  43384-3 0  9999,2 54084  53.2170  97.3102 0001234  74.3460 285.7669 15.08856004 13832,6917.831,95.437,540.55,538.8430000000001,0.0
54084.0,STARLINK-5183,PAYLOAD,2023-01-15 05:36:35,15.08834654,0.0001152,53.2165,94.3377,97.5502,262.5621,0.0003573,5.402e-05,0.0,0 STARLINK-5183,1 54084U 22136AK  23015.23373899  .00005402  00000-0  35730-3 0  9992,2 54084  53.2165  94.3377 0001152  97.5502 262.5621 15.08834654 13939,6917.897,95.438,540.559,538.965,0.0
54084.0,STARLINK-5183,PAYLOAD,2023-01-15 11:58:07,15.08852805,0.0001284999999999,53.2155,93.1488,91.8422,268.2717,0.00040678,6.194e-05,0.0,0 STARLINK-5183,1 54084U 22136AK  23015.49869736  .00006194  00000-0  40678-3 0  9996,2 54084  53.2155  93.1488 0001285  91.8422 268.2717 15.08852805 13491,6917.840999999999,95.437,540.595,538.817,0.0
54084.0,STARLINK-5183,PAYLOAD,2023-01-15 21:30:26,15.08845151,0.0001823,53.217,91.3661,76.6897,283.4298,0.00016069,2.271e-05,0.0,0 STARLINK-5183,1 54084U 22136AK  23015.89614173  .00002271  00000-0  16069-3 0  9992,2 54084  53.2170  91.3661 0001823  76.6897 283.4298 15.08845151 13552,6917.865,95.437,540.991,538.469,0.0
54084.0,STARLINK-5183,PAYLOAD,2023-01-16 05:27:22,15.08837441,9.6e-05,53.2171,89.88,95.9688,264.1414,-0.00023034,-3.951e-05,0.0,0 STARLINK-5183,1 54084U 22136AK  23016.22734357 -.00003951  00000-0 -23034-3 0  9995,2 54084  53.2171  89.8800 0000960  95.9688 264.1414 15.08837441 14081,6917.888000000001,95.438,540.4169999999999,539.089,0.0
54084.0,STARLINK-5183,PAYLOAD,2023-01-16 11:48:54,15.08849654,7.96e-05,53.2161,88.6892,91.383,268.7254,-1.8652e-05,-5.85e-06,0.0,0 STARLINK-5183,1 54084U 22136AK  23016.49229598 -.00000585  00000-0 -18652-4 0  9991,2 54084  53.2161  88.6892 0000796  91.3830 268.7254 15.08849654 14120,6917.851,95.437,540.2669999999999,539.165,0.0
